[{"OBJECT_NAME":"GALAXY 33 (G-33)","OBJECT_ID":"2022-128A","EPOCH":"2026-03-03T16:51:59.732352","MEAN_MOTION":1.0027321,"ECCENTRICITY":0.0001928,"INCLINATION":0.0181,"RA_OF_ASC_NODE":169.7614,"ARG_OF_PERICENTER":169.5822,"MEAN_ANOMALY":302.141,"EPHEMERIS_TYPE":0,"CLASSIFICATION_TYPE":"U","NORAD_CAT_ID":54026,"ELEMENT_SET_NO":999,"REV_AT_EPOCH":1268,"BSTAR":0,"MEAN_MOTION_DOT":0,"MEAN_MOTION_DDOT":0},{"OBJECT_NAME":"GALAXY 34 (G-34)","OBJECT_ID":"2022-128B","EPOCH":"2026-03-03T16:53:07.124352","MEAN_MOTION":1.0027284,"ECCENTRICITY":0.0001406,"INCLINATION":0.0115,"RA_OF_ASC_NODE":137.4497,"ARG_OF_PERICENTER":206.2864,"MEAN_ANOMALY":302.0056,"EPHEMERIS_TYPE":0,"CLASSIFICATION_TYPE":"U","NORAD_CAT_ID":54027,"ELEMENT_SET_NO":999,"REV_AT_EPOCH":1285,"BSTAR":0,"MEAN_MOTION_DOT":4.5e-7,"MEAN_MOTION_DDOT":0},{"OBJECT_NAME":"GALAXY 31 (G-31)","OBJECT_ID":"2022-153A","EPOCH":"2026-03-03T16:55:21.909216","MEAN_MOTION":1.00272253,"ECCENTRICITY":0.0001486,"INCLINATION":0.0156,"RA_OF_ASC_NODE":199.4944,"ARG_OF_PERICENTER":151.4138,"MEAN_ANOMALY":303.3824,"EPHEMERIS_TYPE":0,"CLASSIFICATION_TYPE":"U","NORAD_CAT_ID":54243,"ELEMENT_SET_NO":999,"REV_AT_EPOCH":607,"BSTAR":0,"MEAN_MOTION_DOT":-1.0e-8,"MEAN_MOTION_DDOT":0},{"OBJECT_NAME":"GALAXY 32 (G-32)","OBJECT_ID":"2022-153B","EPOCH":"2026-03-03T11:55:50.019744","MEAN_MOTION":1.00269468,"ECCENTRICITY":0.00030055,"INCLINATION":0.0219,"RA_OF_ASC_NODE":134.8403,"ARG_OF_PERICENTER":219.9556,"MEAN_ANOMALY":254.4371,"EPHEMERIS_TYPE":0,"CLASSIFICATION_TYPE":"U","NORAD_CAT_ID":54244,"ELEMENT_SET_NO":999,"REV_AT_EPOCH":1208,"BSTAR":0,"MEAN_MOTION_DOT":0,"MEAN_MOTION_DDOT":0},{"OBJECT_NAME":"GALAXY 35 (G-35)","OBJECT_ID":"2022-170A","EPOCH":"2026-03-03T13:37:55.829856","MEAN_MOTION":1.00271384,"ECCENTRICITY":0.0002071,"INCLINATION":0.0225,"RA_OF_ASC_NODE":117.0696,"ARG_OF_PERICENTER":224.4258,"MEAN_ANOMALY":291.2099,"EPHEMERIS_TYPE":0,"CLASSIFICATION_TYPE":"U","NORAD_CAT_ID":54741,"ELEMENT_SET_NO":999,"REV_AT_EPOCH":1183,"BSTAR":0,"MEAN_MOTION_DOT":-1.77e-6,"MEAN_MOTION_DDOT":0},{"OBJECT_NAME":"GALAXY 36 (G-36)","OBJECT_ID":"2022-170B","EPOCH":"2026-03-03T13:39:10.711008","MEAN_MOTION":1.00270752,"ECCENTRICITY":0.0002038,"INCLINATION":0.0143,"RA_OF_ASC_NODE":147.3008,"ARG_OF_PERICENTER":248.2011,"MEAN_ANOMALY":241.6031,"EPHEMERIS_TYPE":0,"CLASSIFICATION_TYPE":"U","NORAD_CAT_ID":54742,"ELEMENT_SET_NO":999,"REV_AT_EPOCH":1171,"BSTAR":0,"MEAN_MOTION_DOT":-1.99e-6,"MEAN_MOTION_DDOT":0},{"OBJECT_NAME":"GALAXY 37 (G-37)","OBJECT_ID":"2023-112A","EPOCH":"2026-03-03T16:53:44.564928","MEAN_MOTION":1.00272188,"ECCENTRICITY":0.000206,"INCLINATION":0.0212,"RA_OF_ASC_NODE":122.2325,"ARG_OF_PERICENTER":223.6345,"MEAN_ANOMALY":302.0123,"EPHEMERIS_TYPE":0,"CLASSIFICATION_TYPE":"U","NORAD_CAT_ID":57493,"ELEMENT_SET_NO":999,"REV_AT_EPOCH":948,"BSTAR":0,"MEAN_MOTION_DOT":3.4e-7,"MEAN_MOTION_DDOT":0}]
