GALAXY 33 (G-33)        
1 54026U 22128A   26062.70277468  .00000000  00000+0  00000+0 0  9997
2 54026   0.0181 169.7614 0001928 169.5822 302.1410  1.00273210 12680
GALAXY 34 (G-34)        
1 54027U 22128B   26062.70355468  .00000045  00000+0  00000+0 0  9994
2 54027   0.0115 137.4497 0001406 206.2864 302.0056  1.00272840 12857
GALAXY 31 (G-31)        
1 54243U 22153A   26062.70511469 -.00000001  00000+0  00000+0 0  9990
2 54243   0.0156 199.4944 0001486 151.4138 303.3824  1.00272253  6072
GALAXY 32 (G-32)        
1 54244U 22153B   26062.49710671  .00000000  00000+0  00000+0 0  9991
2 54244   0.0219 134.8403 0003005 219.9556 254.4371  1.00269468 12084
GALAXY 35 (G-35)        
1 54741U 22170A   26062.56800729 -.00000177  00000+0  00000+0 0  9990
2 54741   0.0225 117.0696 0002071 224.4258 291.2099  1.00271384 11830
GALAXY 36 (G-36)        
1 54742U 22170B   26062.56887397 -.00000199  00000+0  00000+0 0  9991
2 54742   0.0143 147.3008 0002038 248.2011 241.6031  1.00270752 11717
GALAXY 37 (G-37)        
1 57493U 23112A   26062.70398802  .00000034  00000+0  00000+0 0  9995
2 57493   0.0212 122.2325 0002060 223.6345 302.0123  1.00272188  9486
